STARLINK-2461           
1 48428U 21040A   26068.52355379 -.00000247  00000+0  37803-5 0  9993
2 48428  53.1634 179.5041 0001422  95.7277 264.3886 15.30208541266654
HERMES-3                
1 63835U 25052BR  26068.93751242  .00020316  00000+0  69958-3 0  9995
2 63835  97.3987 324.6131 0007993 112.9583 247.2502 15.30039785 54863
